[Satellite]
VERSION=1.1
NAME=IRVINE 01
NICKNAME=IRVINE 01
TLE1=1 43693U 18088D   20158.18986333  .00002343  00000-0  98087-4 0  9995
TLE2=2 43693  85.0362  84.4687 0017053 341.1927  18.8683 15.22839177 87139
STATUS=0
